*******************************************************************************
JPL/HORIZONS               109 Felicitas (A869 TA)         2023-Sep-04 11:04:26
Rec #:     109 (+COV) Soln.date: 2023-Aug-21_13:53:44   # obs: 3276 (1996-2023)
 
IAU76/J2000 helio. ecliptic osc. elements (au, days, deg., period=Julian yrs):
 
  EPOCH=  2457360.5 ! 2015-Dec-04.00 (TDB)         Residual RMS= .18018
   EC= .2968562697883805   QR= 1.89654420212283    TP= 2457462.5747344205
   OM= 3.161924945826534   W=  56.38369263942427   IN= 7.881319582798398
   A= 2.697235459316465    MA= 337.2885929145657   ADIST= 3.4979267165101
   PER= 4.42982            N= .222497832           ANGMOM= .026977944
   DAN= 2.11238            DDN= 2.94327            L= 59.2944566
   B= 6.5569013            MOID= .921188           TP= 2016-Mar-15.0747344205
 
Asteroid physical parameters (km, seconds, rotational period in hours):
   GM= n.a.                RAD= 41.294             ROTPER= 13.191
   H= 9.02                 G= .040                 B-V= .696
                           ALBEDO= .036            STYP= Ch

ASTEROID comments: 
1: soln ref.= JPL#59, OCC=0
2: source=ORB
*******************************************************************************


*******************************************************************************
Ephemeris / API_USER Mon Sep  4 11:04:26 2023 Pasadena, USA      / Horizons
*******************************************************************************
Target body name: 109 Felicitas (A869 TA)         {source: JPL#59}
Center body name: Solar System Barycenter (0)     {source: DE441}
Center-site name: BODY CENTER
*******************************************************************************
Start time      : A.D. 2023-Aug-12 00:00:00.0000 TDB
Stop  time      : A.D. 2023-Aug-13 00:00:00.0000 TDB
Step-size       : 2880 minutes
*******************************************************************************
Center geodetic : 0.0, 0.0, 0.0                   {E-lon(deg),Lat(deg),Alt(km)}
Center cylindric: 0.0, 0.0, 0.0                   {E-lon(deg),Dxy(km),Dz(km)}
Center radii    : (undefined)
Small perturbers: Yes                             {source: SB441-N16}
Output units    : KM-S
Calendar mode   : Mixed Julian/Gregorian
Output type     : GEOMETRIC cartesian states
Output format   : 2 (position and velocity)
Reference frame : Ecliptic of J2000.0
*******************************************************************************
Initial IAU76/J2000 heliocentric ecliptic osculating elements (au, days, deg.):
  EPOCH=  2457360.5 ! 2015-Dec-04.00 (TDB)         Residual RMS= .18018        
   EC= .2968562697883805   QR= 1.89654420212283    TP= 2457462.5747344205      
   OM= 3.161924945826534   W=  56.38369263942427   IN= 7.881319582798398       
  Equivalent ICRF heliocentric cartesian coordinates (au, au/d):
   X= 1.922875694979423E+00  Y= 5.234266532055136E-01  Z= 3.013353998602233E-01
  VX=-6.091795024553827E-03 VY= 1.032834912073775E-02 VZ= 6.335827352095548E-03
Asteroid physical parameters (km, seconds, rotational period in hours):        
   GM= n.a.                RAD= 41.294             ROTPER= 13.191              
   H= 9.02                 G= .040                 B-V= .696                   
                           ALBEDO= .036            STYP= Ch                    
*******************************************************************************
JDTDB
   X     Y     Z
   VX    VY    VZ
*******************************************************************************
$$SOE
2460168.500000000 = A.D. 2023-Aug-12 00:00:00.0000 TDB 
 X = 5.591210390678643E+07 Y =-4.756691391210009E+08 Z =-6.577706633630556E+07
 VX= 1.393490690277318E+01 VY= 5.028668110149626E+00 VZ= 6.017984978874669E-01
$$EOE
*******************************************************************************
 
TIME

  Barycentric Dynamical Time ("TDB" or T_eph) output was requested. This
continuous coordinate time is equivalent to the relativistic proper time
of a clock at rest in a reference frame co-moving with the solar system
barycenter but outside the system's gravity well. It is the independent
variable in the solar system relativistic equations of motion.

  TDB runs at a uniform rate of one SI second per second and is independent
of irregularities in Earth's rotation.
 
CALENDAR SYSTEM

  Mixed calendar mode was active such that calendar dates after AD 1582-Oct-15
(if any) are in the modern Gregorian system. Dates prior to 1582-Oct-5 (if any)
are in the Julian calendar system, which is automatically extended for dates
prior to its adoption on 45-Jan-1 BC.  The Julian calendar is useful for
matching historical dates. The Gregorian calendar more accurately corresponds
to the Earth's orbital motion and seasons. A "Gregorian-only" calendar mode is
available if such physical events are the primary interest.

REFERENCE FRAME AND COORDINATES

  Ecliptic at the standard reference epoch

    Reference epoch: J2000.0
    X-Y plane: adopted Earth orbital plane at the reference epoch
               Note: IAU76 obliquity of 84381.448 arcseconds wrt ICRF X-Y plane
    X-axis   : ICRF
    Z-axis   : perpendicular to the X-Y plane in the directional (+ or -) sense
               of Earth's north pole at the reference epoch.

  Symbol meaning:

    JDTDB    Julian Day Number, Barycentric Dynamical Time
      X      X-component of position vector (km)
      Y      Y-component of position vector (km)
      Z      Z-component of position vector (km)
      VX     X-component of velocity vector (km/sec)                           
      VY     Y-component of velocity vector (km/sec)                           
      VZ     Z-component of velocity vector (km/sec)                           

ABERRATIONS AND CORRECTIONS

 Geometric state vectors have NO corrections or aberrations applied.

Computations by ...

    Solar System Dynamics Group, Horizons On-Line Ephemeris System
    4800 Oak Grove Drive, Jet Propulsion Laboratory
    Pasadena, CA  91109   USA

    General site: https://ssd.jpl.nasa.gov/
    Mailing list: https://ssd.jpl.nasa.gov/email_list.html
    System news : https://ssd.jpl.nasa.gov/horizons/news.html
    User Guide  : https://ssd.jpl.nasa.gov/horizons/manual.html
    Connect     : browser        https://ssd.jpl.nasa.gov/horizons/app.html#/x
                  API            https://ssd-api.jpl.nasa.gov/doc/horizons.html
                  command-line   telnet ssd.jpl.nasa.gov 6775
                  e-mail/batch   https://ssd.jpl.nasa.gov/ftp/ssd/hrzn_batch.txt
                  scripts        https://ssd.jpl.nasa.gov/ftp/ssd/SCRIPTS
    Author      : Jon.D.Giorgini@jpl.nasa.gov
*******************************************************************************
